C/2022 B4 (Bok),e,20.0436,340.6533,152.9391,381.1748,0.0001324,0.99638210,0.0000,01/29.8964/2022,2000,g 21.0,4.0
# From MPEC 2022-H04
P/2022 C1 (PANSTARRS),e,4.7615,113.1371,9.3626,7.220546,0.0507983,0.44809962,24.0531,02/21.0/2023,2000,g 12.0,4.0
# From MPEC 2022-OB6
P/2022 C2 (PANSTARRS),e,9.9800,135.2665,89.2885,6.043283,0.0663429,0.44230182,13.1701,02/21.0/2023,2000,g 12.5,4.0
# From MPEC 2022-OB6
P/2022 C3 (PANSTARRS),e,12.8165,139.0523,93.9318,9.640210,0.0329287,0.54623321,7.7344,02/21.0/2023,2000,g 11.5,4.0
# From MPEC 2022-K19
P/2022 D1 (PANSTARRS),e,44.0730,47.9583,88.6892,7.401836,0.0489435,0.54717462,26.5268,02/21.0/2023,2000,g 12.5,4.0
# From MPEC 2022-K19
C/2022 D2 (Kowalski),e,22.6544,312.4583,177.7860,366.7217,0.0001403,0.99576034,0.0000,03/27.5740/2022,2000,g 17.0,4.0
# From MPEC 2022-L66
P/2022 E1 (Christensen),e,19.0055,113.3440,115.0719,3.780584,0.1340806,0.22094071,34.2611,02/21.0/2023,2000,g 13.5,4.0
# From MPEC 2023-CD7
C/2022 E2 (ATLAS),h,09/13.9314/2024,137.1365,125.3637,41.6799,1.001115,3.667048,2000,5.0,4.0
# From MPEC 2023-CD7
C/2022 E3 (ZTF),h,01/12.7852/2023,109.1685,302.5557,145.8158,1.000325,1.112247,2000,7.5,4.0
# From MPEC 2022-WD2
C/2022 F1 (ATLAS),e,57.9725,350.6557,278.2752,11676,0.0000008,0.99948832,0.0000,08/05.2112/2022,2000,g  7.0,4.0
# From MPEC 2022-QD9
C/2022 F2 (NEOWISE),e,97.2928,58.6980,200.6243,23.85639,0.0084586,0.93355932,2.8300,02/21.0/2023,2000,g 14.5,4.0
# From MPEC 2022-P82
C/2022 H1 (PANSTARRS),e,49.8710,6.3678,246.2636,977.9818,0.0000322,0.99213378,0.0000,01/18.8766/2024,2000,g  6.0,4.0
# From MPEC 2022-VC5
C/2022 J1 (Maury-Attard),e,105.9364,280.7293,305.6662,47.62654,0.0029987,0.96631367,1.1004,02/21.0/2023,2000,g 14.9,4.0
# From MPEC 2023-BF4
C/2022 J2 (Bok),e,149.0928,252.5591,133.0714,92.01334,0.0011167,0.98013754,0.0000,10/27.0737/2022,2000,g 15.5,4.0
# From MPEC 2022-ST7
C/2022 K1 (Leonard),h,12/17.5278/2021,41.9676,136.2905,142.6811,1.002838,3.987986,2000,11.0,4.0
# From MPEC 2023-CD7
C/2022 L1 (Catalina),e,123.4679,300.0275,59.8562,543.8175,0.0000777,0.99707348,0.0000,09/28.2513/2022,2000,g 15.8,4.0
# From MPEC 2023-CD7
C/2022 L2 (ATLAS),h,03/12.3332/2024,129.3135,39.2421,199.9488,1.001309,2.692032,2000,6.5,4.0
# From MPEC 2023-CD7
P/2022 L3 (ATLAS),e,21.5431,29.8055,10.3271,6.502837,0.0594360,0.62787586,6.7785,02/21.0/2023,2000,g 16.5,4.0
# From MPEC 2022-N37
C/2022 L4 (PANSTARRS),e,141.2345,66.0521,125.3289,276.9398,0.0002139,0.98911293,0.0000,12/08.7744/2021,2000,g 14.0,4.0
# From MPEC 2022-WD2
P/2022 M1 (LONEOS-PANSTARRS),e,7.0241,322.8910,4.4529,4.891225,0.0911124,0.57865753,18.4694,02/21.0/2023,2000,g 17.0,4.0
# From MPEC 2022-VC5
C/2022 N1 (Attard-Maury),e,164.7406,301.8615,41.0765,37.05264,0.0043699,0.96000934,0.7164,02/21.0/2023,2000,g 16.9,4.0
# From MPEC 2022-QD9
C/2022 N2 (PANSTARRS),h,07/31.3902/2025,5.5026,319.7356,75.3561,1.004247,3.825582,2000,6.0,4.0
# From MPEC 2023-B57
C/2022 O1 (ATLAS),h,02/15.5797/2022,71.0431,49.9137,268.8877,1.004505,7.430256,2000,6.0,4.0
# From MPEC 2023-CD7
P/2022 O2 (PANSTARRS),e,9.4243,330.4943,48.6333,6.312112,0.0621501,0.72167216,2.7914,02/21.0/2023,2000,g 16.0,4.0
# From MPEC 2023-BF4
C/2022 P1 (NEOWISE),e,154.6067,205.0821,249.9389,18.41322,0.0124741,0.91336716,1.0543,02/21.0/2023,2000,g 13.0,4.0
# From MPEC 2023-C45
P/2022 P2 (ZTF),e,12.4439,291.2248,137.5962,4.478636,0.1039885,0.55740941,23.4191,02/21.0/2023,2000,g 12.5,4.0
# From MPEC 2023-CD7
C/2022 P3 (ZTF),e,59.5174,72.2332,0.0977,244.7139,0.0002575,0.98953315,0.0000,07/27.3554/2022,2000,g 12.0,4.0
# From MPEC 2023-BF4
C/2022 Q2 (ATLAS),e,151.4853,352.9438,44.0679,32.61337,0.0052919,0.94958896,0.1079,02/21.0/2023,2000,g 13.0,4.0
# From MPEC 2023-CD7
C/2022 QE78 (ATLAS),h,09/10.4174/2025,36.5489,119.9419,0.3423,1.002611,5.483326,2000,5.0,4.0
# From MPEC 2022-WD2
P/2022 R1 (PANSTARRS),e,7.4069,176.1752,222.5080,7.202854,0.0509856,0.50433523,348.1457,02/21.0/2023,2000,g 11.5,4.0
# From MPEC 2022-Y15
C/2022 R2 (ATLAS),e,52.8962,60.4034,78.3756,420.9332,0.0001141,0.99849724,0.0000,10/25.2202/2022,2000,g 17.0,4.0
# From MPEC 2023-CD7
C/2022 R3 (Leonard),h,03/03.9730/2023,43.1125,8.2992,72.6633,1.004326,5.134718,2000,9.0,4.0
# From MPEC 2022-X67
P/2022 R4 (PANSTARRS),e,21.0217,176.6235,197.4285,3.836105,0.1311802,0.49020527,29.5992,02/21.0/2023,2000,g 16.5,4.0
# From MPEC 2022-WQ9
P/2022 R5 (PANSTARRS),e,15.2933,115.0544,240.6171,3.069572,0.1832683,0.19553183,49.3772,02/21.0/2023,2000,g 16.0,4.0
# From MPEC 2023-A50
C/2022 R6 (PANSTARRS),h,08/25.7778/2025,57.0209,150.7588,319.8553,1.003158,6.568868,2000,5.0,4.0
# From MPEC 2023-CD7
P/2022 S1 (PANSTARRS),e,34.5821,136.0906,262.7555,6.408310,0.0607560,0.50821847,11.2915,02/21.0/2023,2000,g 13.0,4.0
# From MPEC 2022-VC5
C/2022 S3 (PANSTARRS),h,01/21.6839/2023,78.5529,157.3230,267.9639,1.000358,0.838392,2000,17.0,4.0
# From MPEC 2023-CD7
C/2022 S4 (Lemmon),h,07/17.0493/2024,101.0882,220.1473,268.2622,1.003586,2.766423,2000,8.0,4.0
# From MPEC 2023-A50
C/2022 S5 (PANSTARRS),e,136.5328,214.8593,232.7757,20.40162,0.0106956,0.89320500,0.9149,02/21.0/2023,2000,g 15.0,4.0
# From MPEC 2023-C52
C/2022 T1 (Lemmon),e,22.5428,236.9215,324.3350,4951,0.0000028,0.99930430,0.0000,02/17.6102/2024,2000,g  9.0,4.0
# From MPEC 2023-CD7
C/2022 U1 (Leonard),e,128.1298,72.5035,78.5109,23237,0.0000003,0.99981912,0.0000,03/25.5008/2024,2000,g  8.5,4.0
# From MPEC 2023-CD7
C/2022 U2 (ATLAS),e,48.2506,304.4754,147.9105,96.41180,0.0010411,0.98622533,0.0000,01/14.2224/2023,2000,g 16.0,4.0
# From MPEC 2023-CD7
C/2022 U3 (Bok),h,07/27.6937/2024,33.6210,272.8088,188.9563,1.002978,4.829829,2000,7.5,4.0
# From MPEC 2023-CD7
C/2022 U4 (Bok),e,52.0364,132.9305,89.0090,3557,0.0000046,0.99918507,0.0000,08/03.6885/2023,2000,g 10.5,4.0
# From MPEC 2023-CD7
P/2022 W1 (Rankin),e,13.4660,38.8162,17.7878,6.967322,0.0535926,0.51662456,8.4822,02/21.0/2023,2000,g 12.5,4.0
# From MPEC 2023-CD7
C/2022 W2 (ATLAS),e,63.5313,320.4511,123.2511,330.0688,0.0001644,0.99053902,0.0000,03/08.6570/2023,2000,g 11.5,4.0
# From MPEC 2023-CD7
C/2022 W3 (Leonard),e,103.5595,132.2698,116.5187,285.5153,0.0002043,0.99510453,0.0000,06/22.7698/2023,2000,g 13.0,4.0
# From MPEC 2023-CD7
C/2022 Y1 (Hogan),e,18.8583,285.9148,174.7413,12.54868,0.0221721,0.76429998,1.9017,02/21.0/2023,2000,g 13.0,4.0
# From MPEC 2023-CD7
C/2022 Y2 (Lemmon),e,165.9068,216.3476,105.5484,19.68227,0.0112873,0.87069403,359.6656,02/21.0/2023,2000,g 13.5,4.0
# From MPEC 2023-CD7
C/2023 A1 (Leonard),e,94.7534,318.2986,159.2524,279.7882,0.0002106,0.99344201,0.0000,03/18.7312/2023,2000,g 14.5,4.0
# From MPEC 2023-CD7
P/2023 B1 (PANSTARRS),e,14.5829,78.5070,86.9115,7.032914,0.0528447,0.12844911,352.2770,02/21.0/2023,2000,g  5.5,4.0
# From MPEC 2023-CD7
C/2023 B2 (ATLAS),e,40.7677,218.1037,317.4313,469.9146,0.0000968,0.99629158,0.0000,03/10.5263/2023,2000,g 14.5,4.0
# From MPEC 2023-D10
P/2023 B3 (PANSTARRS),e,9.2079,153.9346,238.7082,4.541091,0.1018507,0.12848403,92.3074,02/21.0/2023,2000,g 10.5,4.0
# From  98, 1083
1P/Halley,e,162.1708,59.4130,112.3280,17.86916,0.0130481,0.96674092,176.2250,02/21.0/2023,2000,g  4.0,6.0
# From MPEC 2022-Y15
2P/Encke,e,11.3523,334.0754,187.2373,2.219488,0.2980746,0.84713952,287.4277,02/21.0/2023,2000,g 11.5,6.0
# From MPEC 2022-WD2
4P/Faye,e,8.0092,192.9237,207.0490,3.826611,0.1316687,0.57683202,69.7913,02/21.0/2023,2000,g  8.0,6.0
# From MPEC 2022-WD2
6P/d'Arrest,e,19.5106,138.9388,178.0912,3.497047,0.1507134,0.61247779,78.5719,02/21.0/2023,2000,g  7.5,16.0
# From MPEC 2023-A50
7P/Pons-Winnecke,e,22.3731,93.3276,172.5423,3.409826,0.1565329,0.63853272,99.4028,02/21.0/2023,2000,g 10.0,6.0
# From MPEC 2022-HC2
8P/Tuttle,e,54.9326,270.1926,207.4721,5.703488,0.0723591,0.82019876,39.2375,02/21.0/2023,2000,g  8.0,8.0
# From MPEC 2023-B57
9P/Tempel,e,10.4742,68.6394,179.5340,3.151009,0.1762096,0.50965764,62.1666,02/21.0/2023,2000,g  5.5,10.0
# From MPEC 2023-CD7
10P/Tempel,e,12.0356,117.8147,195.5250,3.061638,0.1839811,0.53811680,128.5880,02/21.0/2023,2000,g  5.0,10.0
# From MPEC 2023-A50
11P/Tempel-Swift-LINEAR,e,14.4289,238.8723,167.9915,3.283808,0.1656294,0.57746305,135.2201,02/21.0/2023,2000,g 17.0,4.0
# From MPEC 2022-UE6
12P/Pons-Brooks,e,74.1842,255.8415,198.9783,17.19696,0.0138206,0.95457661,354.1252,02/21.0/2023,2000,g  5.0,6.0
# From  27, 604
13P/Olbers,e,44.6210,85.9286,64.3854,16.84147,0.0142605,0.93023017,352.9289,02/21.0/2023,2000,g  5.0,6.0
# From MPEC 2021-F20
14P/Wolf,e,27.9278,202.0404,159.1119,4.257916,0.1121782,0.35718158,213.6133,02/21.0/2023,2000,g  5.5,12.0
# From MPEC 2022-ED3
15P/Finlay,e,6.7978,13.7099,347.8723,3.508334,0.1499866,0.71700173,88.1162,02/21.0/2023,2000,g 12.0,4.0
# From MPEC 2022-X67
16P/Brooks,e,3.0114,138.8680,245.2565,3.659063,0.1408151,0.48642875,94.8452,02/21.0/2023,2000,g  7.5,10.0
# From MPEC 2023-BF4
17P/Holmes,e,19.0277,326.6278,24.5661,3.638050,0.1420369,0.42746151,103.8362,02/21.0/2023,2000,g 10.0,6.0
# From MPEC 2023-BF4
19P/Borrelly,e,29.3059,74.2330,351.9393,3.606487,0.1439055,0.63780151,55.2791,02/21.0/2023,2000,g  4.5,10.0
# From MPEC 2021-F20
21P/Giacobini-Zinner,e,32.0592,195.3454,172.8926,3.494735,0.1508630,0.71125561,244.8308,02/21.0/2023,2000,g 11.4,4.0
# From MPEC 2023-BF4
22P/Kopff,e,4.7414,120.7736,163.0144,3.441025,0.1544089,0.54935449,52.4735,02/21.0/2023,2000,g  3.0,10.4
# From MPC 14747
23P/Brorsen-Metcalf,e,19.2390,312.0124,129.1760,16.94308,0.0141324,0.97211647,0.0000,08/10.2697/1989,2000,g 10.0,6.0
# From MPC110085
24P/Schaumasse,e,11.5042,78.3341,58.4440,4.055203,0.1206938,0.70772087,232.9255,02/21.0/2023,2000,g  6.5,14.0
# From MPEC 2022-Y15
26P/Grigg-Skjellerup,e,22.4328,211.5405,2.1492,3.015331,0.1882355,0.64049180,302.1419,02/21.0/2023,2000,g 12.0,16.0
# From MPC 78188
27P/Crommelin,e,29.3596,250.6690,195.8588,9.180772,0.0354312,0.91901923,149.8431,02/21.0/2023,2000,g 12.0,8.0
# From MPEC 2023-CD7
28P/Neujmin,e,14.3109,346.3411,347.4643,6.981377,0.0534309,0.77360422,38.0003,02/21.0/2023,2000,g  8.5,6.0
# From MPEC 2023-CD7
